{"fetched_at":"2026-07-13T18:16:48.096Z","source":"https://celestrak.org/NORAD/elements/gp.php?NAME=CENTAURI&FORMAT=JSON","constellation":"myriota","records":[{"OBJECT_NAME":"CENTAURI-1","OBJECT_ID":"2018-099BD","EPOCH":"2026-07-12T16:13:08.272416","CLASSIFICATION_TYPE":"U","MEAN_MOTION":15.16610155,"ECCENTRICITY":0.00127894,"INCLINATION":97.4213,"RA_OF_ASC_NODE":244.8497,"ARG_OF_PERICENTER":234.441,"MEAN_ANOMALY":125.5632,"EPHEMERIS_TYPE":0,"NORAD_CAT_ID":43809,"ELEMENT_SET_NO":999,"REV_AT_EPOCH":41636,"BSTAR":0.00016299874,"MEAN_MOTION_DOT":0.00003124,"MEAN_MOTION_DDOT":0},{"OBJECT_NAME":"CENTAURI-6","OBJECT_ID":"2024-066K","EPOCH":"2026-07-13T04:54:39.725280","CLASSIFICATION_TYPE":"U","MEAN_MOTION":15.06023681,"ECCENTRICITY":0.00015624,"INCLINATION":45.606,"RA_OF_ASC_NODE":118.598,"ARG_OF_PERICENTER":247.5002,"MEAN_ANOMALY":112.5717,"EPHEMERIS_TYPE":0,"NORAD_CAT_ID":59451,"ELEMENT_SET_NO":999,"REV_AT_EPOCH":12404,"BSTAR":0.00019290901,"MEAN_MOTION_DOT":0.00002612,"MEAN_MOTION_DDOT":0},{"OBJECT_NAME":"CENTAURI-7","OBJECT_ID":"2025-009DD","EPOCH":"2026-07-13T04:20:34.130976","CLASSIFICATION_TYPE":"U","MEAN_MOTION":14.97967909,"ECCENTRICITY":0.0002875,"INCLINATION":97.7105,"RA_OF_ASC_NODE":274.1265,"ARG_OF_PERICENTER":106.0942,"MEAN_ANOMALY":254.0597,"EPHEMERIS_TYPE":0,"NORAD_CAT_ID":62708,"ELEMENT_SET_NO":999,"REV_AT_EPOCH":8135,"BSTAR":0.00020327136,"MEAN_MOTION_DOT":0.0000234,"MEAN_MOTION_DDOT":0},{"OBJECT_NAME":"CENTAURI-8","OBJECT_ID":"2025-009DK","EPOCH":"2026-07-12T17:48:24.994944","CLASSIFICATION_TYPE":"U","MEAN_MOTION":14.97918903,"ECCENTRICITY":0.00025047,"INCLINATION":97.7043,"RA_OF_ASC_NODE":273.5159,"ARG_OF_PERICENTER":79.7814,"MEAN_ANOMALY":280.369,"EPHEMERIS_TYPE":0,"NORAD_CAT_ID":62714,"ELEMENT_SET_NO":999,"REV_AT_EPOCH":8130,"BSTAR":0.00012751397,"MEAN_MOTION_DOT":0.00001444,"MEAN_MOTION_DDOT":0}]}
