CENTAURI-1              
1 43809U 18099BD  26193.67579019  .00003124  00000+0  16300-3 0  9998
2 43809  97.4213 244.8497 0012789 234.4410 125.5632 15.16610155416360
CENTAURI-6              
1 59451U 24066K   26194.20462645  .00002612  00000+0  19291-3 0  9998
2 59451  45.6060 118.5980 0001562 247.5002 112.5717 15.06023681124040
CENTAURI-7              
1 62708U 25009DD  26194.18095059  .00002340  00000+0  20327-3 0  9993
2 62708  97.7105 274.1265 0002875 106.0942 254.0597 14.97967909 81355
CENTAURI-8              
1 62714U 25009DK  26193.74195596  .00001444  00000+0  12751-3 0  9994
2 62714  97.7043 273.5159 0002504  79.7814 280.3690 14.97918903 81302
